NORAD_CAT_ID,OBJECT_NAME,OBJECT_TYPE,EPOCH,MEAN_MOTION,ECCENTRICITY,INCLINATION,RA_OF_ASC_NODE,ARG_OF_PERICENTER,MEAN_ANOMALY,BSTAR,MEAN_MOTION_DOT,MEAN_MOTION_DDOT,TLE_LINE0,TLE_LINE1,TLE_LINE2,SEMIMAJOR_AXIS,PERIOD,APOGEE,PERIGEE,DECAYED
55933.0,STARLINK-5852,PAYLOAD,2024-01-24 12:16:49,14.98343,0.0002202,70.0005,79.0537,274.3635,85.7272,-0.00031821,-3.889e-05,0.0,0 STARLINK-5852,1 55933U 23037V   24024.51168340 -.00003889  00000-0 -31821-3 0  9998,2 55933  70.0005  79.0537 0002202 274.3635  85.7272 14.98343000 48203,6950.153,96.106,573.548,570.487,0.0
55933.0,STARLINK-5852,PAYLOAD,2024-01-24 13:52:57,14.98323454,0.0002239,70.0006,78.8856,264.0847,96.0057,3.9237e-05,3.75e-06,0.0,0 STARLINK-5852,1 55933U 23037V   24024.57844709  .00000375  00000-0  39237-4 0  9999,2 55933  70.0006  78.8856 0002239 264.0847  96.0057 14.98323454 47875,6950.213,96.107,573.634,570.522,0.0
55933.0,STARLINK-5852,PAYLOAD,2024-01-25 12:18:49,14.98335859,0.0002542,70.0002,76.5309,262.6859,97.4011,-1.4066e-05,-2.61e-06,0.0,0 STARLINK-5852,1 55933U 23037V   24025.51307774 -.00000261  00000-0 -14066-4 0  9999,2 55933  70.0002  76.5309 0002542 262.6859  97.4011 14.98335859 48354,6950.175,96.107,573.807,570.273,0.0
55933.0,STARLINK-5852,PAYLOAD,2024-01-26 12:20:50,14.98331278,0.0002673,69.9996,74.005,263.6403,96.4451,7.6471e-05,8.2e-06,0.0,0 STARLINK-5852,1 55933U 23037V   24026.51447620  .00000820  00000-0  76471-4 0  9992,2 55933  69.9996  74.0050 0002673 263.6403  96.4451 14.98331278 48167,6950.189,96.107,573.912,570.196,0.0
55933.0,STARLINK-5852,PAYLOAD,2024-01-27 04:22:11,14.98326448,0.0002497,70.0001,72.323,253.8158,106.2727,-5.0259e-05,-6.92e-06,0.0,0 STARLINK-5852,1 55933U 23037V   24027.18208289 -.00000692  00000-0 -50259-4 0  9997,2 55933  70.0001  72.3230 0002497 253.8158 106.2727 14.98326448 48608,6950.204,96.107,573.804,570.333,0.0
55933.0,STARLINK-5852,PAYLOAD,2024-01-27 12:22:52,14.9832323,0.0002628,69.9996,71.4794,263.9191,96.1668,-8.731e-05,-1.134e-05,0.0,0 STARLINK-5852,1 55933U 23037V   24027.51588725 -.00001134  00000-0 -87310-4 0  9990,2 55933  69.9996  71.4794 0002628 263.9191  96.1668 14.98323230 48313,6950.214,96.107,573.905,570.252,0.0
55933.0,STARLINK-5852,PAYLOAD,2024-01-28 04:24:12,14.98333205,0.0002826,69.9991,69.795,264.6786,95.4051,1.3195e-05,6.4e-07,0.0,0 STARLINK-5852,1 55933U 23037V   24028.18347811  .00000064  00000-0  13195-4 0  9992,2 55933  69.9991  69.7950 0002826 264.6786  95.4051 14.98333205 48759,6950.183,96.107,574.012,570.084,0.0
55933.0,STARLINK-5852,PAYLOAD,2024-01-28 12:24:52,14.98333853,0.0002836,69.9993,68.9537,266.5905,93.4929,2.1703e-05,1.66e-06,0.0,0 STARLINK-5852,1 55933U 23037V   24028.51727713  .00000166  00000-0  21703-4 0  9999,2 55933  69.9993  68.9537 0002836 266.5905  93.4929 14.98333853 48467,6950.181,96.107,574.017,570.075,0.0
55933.0,STARLINK-5852,PAYLOAD,2024-01-29 10:50:45,14.98332674,0.0002921,69.9992,66.597,267.7329,92.3495,0.00012597,1.41e-05,0.0,0 STARLINK-5852,1 55933U 23037V   24029.45191445  .00001410  00000-0  12597-3 0  9993,2 55933  69.9992  66.5970 0002921 267.7329  92.3495 14.98332674 48948,6950.185,96.107,574.08,570.019,0.0
55933.0,STARLINK-5852,PAYLOAD,2024-01-29 12:26:53,14.98333379,0.0002918,69.9992,66.4288,267.5434,92.5391,0.00013067,1.467e-05,0.0,0 STARLINK-5852,1 55933U 23037V   24029.51867371  .00001467  00000-0  13067-3 0  9993,2 55933  69.9992  66.4288 0002918 267.5434  92.5391 14.98333379 48614,6950.182,96.107,574.076,570.019,0.0
55933.0,STARLINK-5852,PAYLOAD,2024-01-30 04:28:14,14.98330403,0.0002696,69.9998,64.7456,266.9701,93.1149,-1.2966e-05,-2.48e-06,0.0,0 STARLINK-5852,1 55933U 23037V   24030.18627895 -.00000248  00000-0 -12966-4 0  9999,2 55933  69.9998  64.7456 0002696 266.9701  93.1149 14.98330403 49053,6950.192,96.107,573.93,570.183,0.0
55933.0,STARLINK-5852,PAYLOAD,2024-01-30 12:28:54,14.98330428,0.00027,69.9998,63.904,267.6637,92.4213,-1.2166e-05,-2.38e-06,0.0,0 STARLINK-5852,1 55933U 23037V   24030.52007871 -.00000238  00000-0 -12166-4 0  9994,2 55933  69.9998  63.9040 0002700 267.6637  92.4213 14.98330428 48763,6950.192,96.107,573.933,570.18,0.0
55933.0,STARLINK-5852,PAYLOAD,2024-01-31 04:30:15,14.98331904,0.0002636,69.9999,62.2208,267.9714,92.1143,-1.1136e-05,-2.26e-06,0.0,0 STARLINK-5852,1 55933U 23037V   24031.18767674 -.00000226  00000-0 -11136-4 0  9994,2 55933  69.9999  62.2208 0002636 267.9714  92.1143 14.98331904 49208,6950.187,96.107,573.884,570.22,0.0
55933.0,STARLINK-5852,PAYLOAD,2024-01-31 10:54:47,14.98330368,0.0002668,69.9999,61.5476,269.3997,90.6856,-2.6345e-05,-4.07e-06,0.0,0 STARLINK-5852,1 55933U 23037V   24031.45471800 -.00000407  00000-0 -26345-4 0  9996,2 55933  69.9999  61.5476 0002668 269.3997  90.6856 14.98330368 48904,6950.192,96.107,573.911,570.202,0.0
55933.0,STARLINK-5852,PAYLOAD,2024-02-01 10:56:48,14.98328266,0.0002792,69.9994,59.0226,267.8148,92.2692,1.4429e-05,7.9e-07,0.0,0 STARLINK-5852,1 55933U 23037V   24032.45611770  .00000079  00000-0  14429-4 0  9992,2 55933  69.9994  59.0226 0002792 267.8148  92.2692 14.98328266 49397,6950.198,96.107,574.004,570.123,0.0
55933.0,STARLINK-5852,PAYLOAD,2024-02-02 10:58:49,14.98328726,0.0002827,69.9994,56.4976,267.1385,92.9451,8.6773e-06,1.1e-07,0.0,0 STARLINK-5852,1 55933U 23037V   24033.45751808  .00000011  00000-0  86773-5 0  9998,2 55933  69.9994  56.4976 0002827 267.1385  92.9451 14.98328726 49543,6950.197,96.107,574.027,570.097,0.0
55933.0,STARLINK-5852,PAYLOAD,2024-02-03 11:00:50,14.98330027,0.0002874,69.9994,53.9726,266.999,93.084,2.4954e-05,2.05e-06,0.0,0 STARLINK-5852,1 55933U 23037V   24034.45891681  .00000205  00000-0  24954-4 0  9990,2 55933  69.9994  53.9726 0002874 266.9990  93.0840 14.98330027 49696,6950.193,96.107,574.055,570.06,0.0
55933.0,STARLINK-5852,PAYLOAD,2024-02-03 19:01:30,14.98330143,0.0002913,69.9993,53.13,269.4311,90.6515,2.7257e-05,2.32e-06,0.0,0 STARLINK-5852,1 55933U 23037V   24034.79271664  .00000232  00000-0  27257-4 0  9999,2 55933  69.9993  53.1300 0002913 269.4311  90.6515 14.98330143 49404,6950.192,96.107,574.082,570.033,0.0
55933.0,STARLINK-5852,PAYLOAD,2024-02-04 11:02:50,14.98334528,0.000293,69.9993,51.4468,270.3652,89.7171,6.5803e-05,6.92e-06,0.0,0 STARLINK-5852,1 55933U 23037V   24035.46031209  .00000692  00000-0  65803-4 0  9992,2 55933  69.9993  51.4468 0002930 270.3652  89.7171 14.98334528 49844,6950.179,96.107,574.08,570.007,0.0
55933.0,STARLINK-5852,PAYLOAD,2024-02-05 11:04:52,14.98332141,0.0002873,69.9996,48.922,272.0821,88.0009,2.141e-05,1.62e-06,0.0,0 STARLINK-5852,1 55933U 23037V   24036.46171339  .00000162  00000-0  21410-4 0  9990,2 55933  69.9996  48.9220 0002873 272.0821  88.0009 14.98332141 49994,6950.186,96.107,574.048,570.054,0.0
55933.0,STARLINK-5852,PAYLOAD,2024-02-06 09:30:44,14.98332345,0.0002801,69.9998,46.5656,271.9684,88.1154,-6.0544e-06,-1.65e-06,0.0,0 STARLINK-5852,1 55933U 23037V   24037.39635298 -.00000165  00000-0 -60544-5 0  9999,2 55933  69.9998  46.5656 0002801 271.9684  88.1154 14.98332345 49795,6950.186,96.107,573.997,570.104,0.0
55933.0,STARLINK-5852,PAYLOAD,2024-02-07 03:08:13,14.98330908,0.000279,69.9999,44.7146,266.2408,93.8432,1.6099e-05,9.9e-07,0.0,0 STARLINK-5852,1 55933U 23037V   24038.13071179  .00000099  00000-0  16099-4 0  9993,2 55933  69.9999  44.7146 0002790 266.2408  93.8432 14.98330908 50245,6950.19,96.107,573.994,570.116,0.0
55933.0,STARLINK-5852,PAYLOAD,2024-02-07 09:32:45,14.98331918,0.0002774,70.0,44.0414,265.9363,94.1479,2.7345e-05,2.33e-06,0.0,0 STARLINK-5852,1 55933U 23037V   24038.39775064  .00000233  00000-0  27345-4 0  9991,2 55933  70.0000  44.0414 0002774 265.9363  94.1479 14.98331918 49942,6950.187,96.107,573.98,570.124,0.0
55933.0,STARLINK-5852,PAYLOAD,2024-02-07 17:33:26,14.98326277,0.0002772,70.0,43.1994,268.922,91.1622,-2.7998e-05,-4.27e-06,0.0,0 STARLINK-5852,1 55933U 23037V   24038.73155598 -.00000427  00000-0 -27998-4 0  9994,2 55933  70.0000  43.1994 0002772 268.9220  91.1622 14.98326277 49992,6950.204,96.107,573.996,570.143,0.0
55933.0,STARLINK-5852,PAYLOAD,2024-02-08 01:34:06,14.98325396,0.0002809,69.9999,42.3574,268.543,91.5407,-3.4716e-05,-5.07e-06,0.0,0 STARLINK-5852,1 55933U 23037V   24039.06535723 -.00000507  00000-0 -34716-4 0  9998,2 55933  69.9999  42.3574 0002809 268.5430  91.5407 14.98325396 50382,6950.207,96.107,574.024,570.12,0.0
55933.0,STARLINK-5852,PAYLOAD,2024-02-08 14:23:11,14.98323824,0.0002902,69.9997,41.0104,268.1563,91.9263,-5.7072e-05,-7.74e-06,0.0,0 STARLINK-5852,1 55933U 23037V   24039.59944030 -.00000774  00000-0 -57072-4 0  9997,2 55933  69.9997  41.0104 0002902 268.1563  91.9263 14.98323824 50122,6950.212,96.107,574.094,570.06,0.0
55933.0,STARLINK-5852,PAYLOAD,2024-02-09 03:12:15,14.98330983,0.0002984,69.9994,39.6624,266.5839,93.4978,2.0296e-06,-6.9e-07,0.0,0 STARLINK-5852,1 55933U 23037V   24040.13351387 -.00000069  00000-0  20296-5 0  9991,2 55933  69.9994  39.6624 0002984 266.5839  93.4978 14.98330983 50547,6950.19,96.107,574.129,569.981,0.0
55933.0,STARLINK-5852,PAYLOAD,2024-02-09 09:36:47,14.98335422,0.0003006,69.9995,38.9899,268.1107,91.9708,4.8673e-05,4.88e-06,0.0,0 STARLINK-5852,1 55933U 23037V   24040.40054954  .00000488  00000-0  48673-4 0  9993,2 55933  69.9995  38.9899 0003006 268.1107  91.9708 14.98335422 50240,6950.176,96.107,574.13,569.952,0.0
55933.0,STARLINK-5852,PAYLOAD,2024-02-10 03:14:16,14.98325315,0.0003008,69.9997,37.1382,267.9379,92.1436,7.0353e-05,7.46e-06,0.0,0 STARLINK-5852,1 55933U 23037V   24041.13491550  .00000746  00000-0  70353-4 0  9998,2 55933  69.9997  37.1382 0003008 267.9379  92.1436 14.98325315 50690,6950.207,96.107,574.163,569.982,0.0
55933.0,STARLINK-5852,PAYLOAD,2024-02-10 09:38:48,14.9833017,0.0002999,69.9998,36.4648,267.7366,92.345,8.2564e-05,8.92e-06,0.0,0 STARLINK-5852,1 55933U 23037V   24041.40195257  .00000892  00000-0  82564-4 0  9992,2 55933  69.9998  36.4648 0002999 267.7366  92.3450 14.98330170 50390,6950.192,96.107,574.142,569.973,0.0
